{
  "norad_id": 59024,
  "name": "STARLINK-31006",
  "history": [
    {
      "epoch": "2026-03-28T16:06:01.693152Z",
      "apogee_km": 483.86629609167267,
      "perigee_km": 482.17021851206755,
      "latitude_deg": -1.6022875714961592e-05,
      "longitude_deg": 161.81586945456195,
      "height_km": 482.8473984519203,
      "semi_major_axis_km": 6861.15525730187,
      "eccentricity": 0.0001236,
      "inclination_deg": 42.9991,
      "raan_deg": 229.4109,
      "arg_perigee_deg": 266.4381,
      "mean_anomaly_deg": 93.6329,
      "mean_motion_rev_day": 15.27590299
    }
  ]
}